STARLINK-1434           
1 45712U 20035BH  26068.24137979  .00054112  00000+0  20295-2 0  9995
2 45712  53.0547  22.1128 0005343  88.0400 272.1210 15.26724568319325
STARLINK-30905          
1 58356U 23177F   26068.10870226  .00003139  00000+0  12664-3 0  9992
2 58356  43.0027 353.4154 0001599 257.5551 102.5121 15.26741880128087
